location_id,zip_code,public_place,street_number,location_type,city,district,country
1,24,Briar Crest,9461,SUBWAY,Tokorozawa,JP,Japan
2,794,Anzinger,25288,ELEVATOR,Kaingiwa,NG,Nigeria
3,720,Oak,42102,MALL,Yershov,RU,Russia
4,159,Rusk,9200,AIRPORT,Chiang Mai,TH,Thailand
5,635,Crest Line,6,AIRPORT,Puttalam,LK,Sri Lanka
6,809,Nova,4265,ELEVATOR,Agkathiá,GR,Greece
7,548,Caliangt,43051,SUBWAY,La Rochelle,FR,France
8,654,Maple,687,AIRPORT,Perelyub,RU,Russia
9,492,Lighthouse Bay,494,MALL,Jiubao,CN,China
10,812,Jenifer,88399,SUPERMARKET,Garawati,ID,Indonesia
11,146,Clemons,8,SUBWAY,Troyan,BG,Bulgaria
12,527,Montana,07,MALL,Xiangrong,CN,China
13,836,Menomonie,181,SUBWAY,Cabatuan,PH,Philippines
14,801,Clarendon,86235,AIRPORT,Khashuri,GE,Georgia
15,151,Tomscot,232,BUS,Caeté,BR,Brazil
16,867,Harbort,618,SUPERMARKET,Legok,ID,Indonesia
17,536,Sherman,61,SUPERMARKET,Kilmacanoge,IE,Ireland
18,135,Norway Maple,4,TRAIN,Riung,ID,Indonesia
19,496,Hagan,894,AIRPORT,Markaryd,SE,Sweden
20,295,Morning,71,SUPERMARKET,Santa Maria do Souto,PT,Portugal
21,801,Vera,940,MALL,Zamboanguita,PH,Philippines
22,908,Cottonwood,4,MALL,Maruoka,JP,Japan
23,411,Division,84,SUPERMARKET,Gaoliang,CN,China
24,115,Granby,281,BUS,Tawun,ID,Indonesia
25,207,Cardinal,2688,TRAIN,Újezd,CZ,Czech Republic
26,686,Grasskamp,197,BUS,Jobabo,CU,Cuba
27,590,Gerald,4475,TRAIN,Betzdorf,LU,Luxembourg
28,922,Beilfuss,582,AIRPORT,Calancuasan Norte,PH,Philippines
29,497,Petterle,531,ELEVATOR,Las Trojes,HN,Honduras
30,845,Warrior,82,BUS,Jefferson City,US,United States
31,65,Arkansas,8,ELEVATOR,Byala,BG,Bulgaria
32,562,Eastwood,72,SUPERMARKET,Rafael Perazza,UY,Uruguay
33,135,Fieldstone,1149,SUBWAY,Ouyang,CN,China
34,319,Brentwood,48,ELEVATOR,Thị Trấn Mù Cang Chải,VN,Vietnam
35,399,Londonderry,684,BUS,Alexandria,JM,Jamaica
36,898,Algoma,77541,TRAIN,Sala,SE,Sweden
37,677,1st,1491,BUS,Lututów,PL,Poland
38,768,Sunnyside,28,MALL,Kupang,ID,Indonesia
39,43,Dottie,4,ELEVATOR,Los Patios,CO,Colombia
40,929,Lakeland,3,AIRPORT,San Carlos de Bariloche,AR,Argentina
41,413,Blue Bill Park,38995,TRAIN,Lyon,FR,France
42,367,Maple Wood,9,TRAIN,Nové Město pod Smrkem,CZ,Czech Republic
43,593,Corscot,35554,SUPERMARKET,Iles,CO,Colombia
44,995,Trailsway,2317,AIRPORT,Corcuera,PH,Philippines
45,431,Gulseth,7208,SUPERMARKET,Liliba,ID,Indonesia
46,831,Randy,05113,MALL,Jinghai,CN,China
47,441,Corscot,1342,MALL,Kutorejo,ID,Indonesia
48,264,Crest Line,97,TRAIN,Bahir Dar,ET,Ethiopia
49,245,Monica,3,SUBWAY,Araçatuba,BR,Brazil
50,298,Cottonwood,91747,SUPERMARKET,Bualu,ID,Indonesia
51,97,Hooker,77,SUPERMARKET,Grzybowa Góra,PL,Poland
52,922,Vahlen,2,SUBWAY,Garunggang,ID,Indonesia
53,915,Shasta,6,SUPERMARKET,Pajapita,GT,Guatemala
54,594,Melby,03,ELEVATOR,Lianghekou,CN,China
55,983,Ohio,1997,MALL,Umpak,ID,Indonesia
56,743,Cottonwood,3,AIRPORT,Businga,CD,Democratic Republic of the Congo
57,527,Forest Run,492,ELEVATOR,Batas Barat,ID,Indonesia
58,146,Corben,330,ELEVATOR,Huntington Beach,US,United States
59,846,Eagan,9,TRAIN,Dihtyari,UA,Ukraine
60,58,Mesta,1383,AIRPORT,Ntonggu,ID,Indonesia
61,286,Talisman,8,BUS,Donskoye,RU,Russia
62,308,Declaration,39,ELEVATOR,Spitak,AM,Armenia
63,760,Bartelt,080,SUPERMARKET,Yucun,CN,China
64,233,Atwood,0638,AIRPORT,Chaínça,PT,Portugal
65,462,Sutteridge,80,SUPERMARKET,Hedong,CN,China
66,875,Quincy,409,SUPERMARKET,Maha Sarakham,TH,Thailand
67,493,Bobwhite,4,MALL,Suchedniów,PL,Poland
68,708,Sherman,028,AIRPORT,Salinas,EC,Ecuador
69,347,Leroy,06,MALL,Saraza,PH,Philippines
70,883,Barby,3258,AIRPORT,Gayam,ID,Indonesia
71,571,Briar Crest,46,SUBWAY,Nałęczów,PL,Poland
72,749,Farwell,9,AIRPORT,Perico,CU,Cuba
73,79,American,0633,MALL,Padang,ID,Indonesia
74,236,Merrick,450,TRAIN,Guoyuan,CN,China
75,466,Montana,692,ELEVATOR,Pajagan,ID,Indonesia
76,135,Rigney,210,MALL,Mino,JP,Japan
77,799,Johnson,23956,BUS,Ban Nahin,LA,Laos
78,538,Acker,69,ELEVATOR,Baffa,PK,Pakistan
79,214,Waywood,59,BUS,Tuanalepe,ID,Indonesia
80,663,Gale,68336,AIRPORT,Thị Xã Lai Châu,VN,Vietnam
81,693,Jana,8530,TRAIN,Biting,ID,Indonesia
82,145,Warner,15,SUBWAY,Chalan Pago-Ordot Village,GU,Guam
83,162,Londonderry,08726,AIRPORT,Juntang,CN,China
84,810,Springs,373,TRAIN,Corona,US,United States
85,608,Hansons,989,BUS,Rancamaya,ID,Indonesia
86,957,Scofield,416,BUS,Dasha,CN,China
87,340,Meadow Ridge,22,MALL,Gaozhai,CN,China
88,813,Coolidge,218,SUPERMARKET,Bibiani,GH,Ghana
89,625,East,76,AIRPORT,Nusajaya,MY,Malaysia
90,464,Village Green,76,MALL,Ad Dabbah,SD,Sudan
91,557,Washington,99,TRAIN,Masaran,ID,Indonesia
92,163,Union,41,SUBWAY,Dukuhpicung,ID,Indonesia
93,316,Kenwood,77412,SUPERMARKET,Brinkmann,AR,Argentina
94,160,Reinke,18,BUS,Xinji,CN,China
95,104,Crescent Oaks,23855,AIRPORT,Baucau,TL,East Timor
96,838,Holy Cross,8454,BUS,Iralaya,HN,Honduras
97,874,Bluestem,388,TRAIN,Gémeos,PT,Portugal
98,619,Riverside,5802,AIRPORT,Abaca,PH,Philippines
99,908,Miller,048,TRAIN,Flor da Rosa,PT,Portugal
100,892,Mitchell,57439,MALL,Tailing,CN,China
101,687,Ludington,540,SUBWAY,Zhongzi,CN,China
102,8,Hayes,22853,SUBWAY,Shīnḏanḏ,AF,Afghanistan
103,106,East,70,BUS,Taling,CN,China
104,998,Lighthouse Bay,0,SUPERMARKET,Mayanhe,CN,China
105,138,Milwaukee,4243,ELEVATOR,Zhuangbu,CN,China
106,172,Prentice,850,SUBWAY,Baalbek,LB,Lebanon
107,289,Manitowish,40,SUPERMARKET,Itapemirim,BR,Brazil
108,413,Elgar,194,SUPERMARKET,Baiyangwan,CN,China
109,723,Burning Wood,97428,ELEVATOR,Czerniewice,PL,Poland
110,741,Toban,22,MALL,Ar Rawḑah,SY,Syria
111,768,Jenifer,14,SUPERMARKET,Zouila,TN,Tunisia
112,180,Golf,86808,MALL,Aracruz,BR,Brazil
113,252,Mifflin,3389,SUBWAY,Doubravice nad Svitavou,CZ,Czech Republic
114,314,Independence,55350,SUPERMARKET,Pskov,RU,Russia
115,513,Moland,23387,AIRPORT,Limoeiro de Anadia,BR,Brazil
116,508,Melody,71548,ELEVATOR,Zengjia,CN,China
117,606,Monument,7,SUPERMARKET,Stamáta,GR,Greece
118,993,Buell,30,BUS,Norrköping,SE,Sweden
119,921,Myrtle,9391,AIRPORT,Gołkowice,PL,Poland
120,710,Hoffman,5,SUBWAY,Washington,US,United States
121,451,Heffernan,08281,SUPERMARKET,Krapivna,RU,Russia
122,868,Rutledge,30779,TRAIN,Gorbatov,RU,Russia
123,985,Erie,27,ELEVATOR,Chengjiao,CN,China
124,107,Clarendon,5643,ELEVATOR,Billère,FR,France
125,465,Lawn,037,BUS,Salinas,PH,Philippines
126,659,Oak,533,AIRPORT,Shënmëri,AL,Albania
127,87,Banding,19879,TRAIN,Babakan,ID,Indonesia
128,401,Ridgeview,9,MALL,Karangora,ID,Indonesia
129,242,Butterfield,2,TRAIN,Claye-Souilly,FR,France
130,305,Northview,80,BUS,Henglin,CN,China
131,425,Thackeray,840,MALL,Naushki,RU,Russia
132,330,Texas,5641,MALL,Juan L. Lacaze,UY,Uruguay
133,186,Union,337,TRAIN,Smederevo,RS,Serbia
134,302,Manley,13268,BUS,Evansville,US,United States
135,89,Scofield,046,AIRPORT,Gaotang,CN,China
136,376,Morning,205,SUPERMARKET,Khiv,RU,Russia
137,719,Butternut,74371,ELEVATOR,Karney Shomron,PS,Palestinian Territory
138,688,Packers,2679,TRAIN,Al Bawīţī,EG,Egypt
139,983,Prairieview,3,SUPERMARKET,Tagawa,JP,Japan
140,620,Packers,8,TRAIN,Nuwara Eliya,LK,Sri Lanka
141,598,Melrose,8573,BUS,Glugur Tengah,ID,Indonesia
142,809,Hoepker,3,MALL,Sanxi,CN,China
143,61,Golf Course,089,SUBWAY,Temizhbekskaya,RU,Russia
144,176,Mallory,7,BUS,Ljubovija,RS,Serbia
145,611,Clemons,2,MALL,Huangtudian,CN,China
146,15,Johnson,7,SUPERMARKET,Ar Ramthā,JO,Jordan
147,404,Northwestern,9,TRAIN,Pustomyty,UA,Ukraine
148,587,Welch,1,SUBWAY,Rosario de Lerma,AR,Argentina
149,867,Lotheville,41,TRAIN,Ilovlya,RU,Russia
150,254,Pond,3,SUBWAY,Paradise,TT,Trinidad and Tobago
151,360,Nancy,11720,ELEVATOR,Tamboril,DO,Dominican Republic
152,372,Messerschmidt,751,MALL,La Mesa,PA,Panama
153,504,Gulseth,0,AIRPORT,Honghai,CN,China
154,143,Del Mar,38418,SUPERMARKET,Fresno,US,United States
155,226,Becker,09,SUPERMARKET,Thị Trấn Ngan Dừa,VN,Vietnam
156,205,Sunfield,99833,AIRPORT,Gorodets,RU,Russia
157,177,Judy,516,ELEVATOR,Nanjie,CN,China
158,982,Hollow Ridge,02493,ELEVATOR,Uyovu,TZ,Tanzania
159,969,Annamark,04752,SUPERMARKET,Donnacona,CA,Canada
160,623,Warner,1,AIRPORT,Huangmao,CN,China
161,74,Summer Ridge,0,TRAIN,Paris 19,FR,France
162,384,Dapin,7,ELEVATOR,Petropavlovsk,KZ,Kazakhstan
163,37,Linden,52120,SUPERMARKET,El Tambo,CO,Colombia
164,898,Pankratz,1,SUPERMARKET,Wilmington,US,United States
165,311,Longview,98,MALL,Lyudinovo,RU,Russia
166,599,Arkansas,7531,SUBWAY,Gununganyar,ID,Indonesia
167,495,Dovetail,511,SUBWAY,Saitama,JP,Japan
168,860,Eliot,82769,SUPERMARKET,Liangwangzhuang,CN,China
169,713,Parkside,6,BUS,Idkū,EG,Egypt
170,620,Spaight,67394,SUBWAY,Alto Río Senguer,AR,Argentina
171,633,Northwestern,5,AIRPORT,Socos,PE,Peru
172,741,Katie,8,SUPERMARKET,Palmeira,BR,Brazil
173,939,Elgar,0,TRAIN,Al Mālikīyah,SY,Syria
174,148,Corscot,17,SUBWAY,Independencia,MX,Mexico
175,485,Eagan,66145,AIRPORT,Shatrovo,RU,Russia
176,820,Ryan,0,TRAIN,Bao’an,CN,China
177,217,Hoard,150,MALL,Nowshahr,IR,Iran
178,674,Sutteridge,27633,SUBWAY,Novogurovskiy,RU,Russia
179,883,Beilfuss,3,AIRPORT,Sumurasin,ID,Indonesia
180,692,Banding,52,SUBWAY,Puunage,ID,Indonesia
181,956,Katie,0613,SUBWAY,Rawang,MY,Malaysia
182,9,Oak Valley,6,BUS,Uzgen,KG,Kyrgyzstan
183,636,Fulton,9559,TRAIN,Tlučná,CZ,Czech Republic
184,69,Eastwood,04220,SUBWAY,Kalangbret,ID,Indonesia
185,930,Grim,505,AIRPORT,Oslo,NO,Norway
186,208,Columbus,281,BUS,Carnot,CF,Central African Republic
187,261,Grasskamp,41,ELEVATOR,Rozivka,UA,Ukraine
188,252,Mallard,5571,BUS,Paombong,PH,Philippines
189,34,Buell,5,MALL,Jiangchang,CN,China
190,910,Fairview,68114,SUBWAY,Baracatan,PH,Philippines
191,752,Farwell,16085,AIRPORT,Xintai,CN,China
192,314,Eagan,10056,ELEVATOR,Ketawang,ID,Indonesia
193,220,Logan,8370,BUS,Girón,CO,Colombia
194,826,Katie,358,SUPERMARKET,Alegre,BR,Brazil
195,877,Chive,9,ELEVATOR,Goiânia,BR,Brazil
196,370,Bunting,64409,ELEVATOR,Srbica,MK,Macedonia
197,178,Canary,03,MALL,Lyubeshiv,UA,Ukraine
198,944,Homewood,7601,ELEVATOR,Pontang Tengah,ID,Indonesia
199,534,Nobel,3,AIRPORT,Yangfeng,CN,China
200,191,Bayside,02577,TRAIN,Pasir,ID,Indonesia
201,730,Northport,8879,SUPERMARKET,Beylagan,AZ,Azerbaijan
202,511,Claremont,19041,SUBWAY,Strängnäs,SE,Sweden
203,498,Dapin,52090,BUS,Puerto Alto,HN,Honduras
204,787,Atwood,321,SUBWAY,Ondoy,PH,Philippines
205,9,Blaine,2,SUBWAY,Qīr Moāv,JO,Jordan
206,770,Londonderry,04,AIRPORT,Opechenskiy Posad,RU,Russia
207,202,Southridge,4711,MALL,Montréal,CA,Canada
208,521,Springview,0,BUS,Sofo-Birnin-Gwari,NG,Nigeria
209,393,Lukken,78040,TRAIN,Keli,CN,China
210,827,8th,71264,SUPERMARKET,Porto Alto,PT,Portugal
211,131,Merchant,14824,SUPERMARKET,Tân Châu,VN,Vietnam
212,970,Raven,53046,BUS,Quipot,PH,Philippines
213,474,Melvin,71858,TRAIN,Miyang,CN,China
214,129,Magdeline,8020,TRAIN,Nogliki,RU,Russia
215,555,Tennyson,5864,MALL,Gar,CN,China
216,801,Mcbride,60,AIRPORT,Kemiri Daya,ID,Indonesia
217,275,Northfield,53446,ELEVATOR,Biscoitos,PT,Portugal
218,109,Lillian,907,AIRPORT,Pizarro,CO,Colombia
219,277,Washington,4006,SUPERMARKET,Siasi,PH,Philippines
220,379,Hanson,5,ELEVATOR,Paucar,PE,Peru
221,249,Eastlawn,83048,AIRPORT,Ciputat,ID,Indonesia
222,561,Butterfield,37187,AIRPORT,Saint-Herblain,FR,France
223,305,Fairview,01,SUBWAY,Greenwood,CA,Canada
224,76,Bowman,5,ELEVATOR,Chame,PA,Panama
225,797,Trailsway,5,SUPERMARKET,Dongxi,CN,China
226,490,Esker,1539,TRAIN,Cicayur,ID,Indonesia
227,87,Corscot,931,TRAIN,Duodaoshi,CN,China
228,462,Walton,53375,BUS,Beidajie,CN,China
229,42,Fair Oaks,92,AIRPORT,Pasirjengkol,ID,Indonesia
230,841,Buhler,6,MALL,Flushing,US,United States
231,83,Ilene,40,SUBWAY,Malinovskiy,RU,Russia
232,727,Cherokee,4,TRAIN,Yanzhou,CN,China
233,428,Lien,6563,TRAIN,El Bolsón,AR,Argentina
234,992,Troy,738,MALL,Cagbang,PH,Philippines
235,389,Utah,38911,ELEVATOR,Jinbi,CN,China
236,324,Washington,5977,BUS,Dayan,CN,China
237,911,Bultman,83342,ELEVATOR,Anren,CN,China
238,642,Dakota,6,SUBWAY,Wailolung,ID,Indonesia
239,758,Maple Wood,6,MALL,Chingas,PE,Peru
240,307,Hintze,93644,SUBWAY,Quibdó,CO,Colombia
241,28,Scoville,15725,ELEVATOR,Donnacona,CA,Canada
242,478,Sunfield,02895,SUPERMARKET,Abū Mūsā,IR,Iran
243,259,Magdeline,29233,ELEVATOR,Luoping,CN,China
244,629,Jackson,92,BUS,Xiaozhang,CN,China
245,724,Hazelcrest,5,ELEVATOR,São Luiz Gonzaga,BR,Brazil
246,812,Lake View,93,SUBWAY,San Mariano,PH,Philippines
247,321,Acker,28414,SUPERMARKET,Sułów,PL,Poland
248,989,Forster,59337,BUS,Winseler,LU,Luxembourg
249,347,Prairieview,73,SUBWAY,Shangqing,CN,China
250,444,Carey,58,BUS,Hangou,CN,China
251,268,Cardinal,58,BUS,Beiwucha,CN,China
252,528,Hayes,3,SUBWAY,Trzebiatów,PL,Poland
253,573,Montana,6,ELEVATOR,Shazhenxi,CN,China
254,168,Old Shore,778,AIRPORT,Rudky,UA,Ukraine
255,91,Lillian,451,MALL,Laiya,PH,Philippines
256,54,Hudson,119,TRAIN,Sinamar,PH,Philippines
257,678,Roxbury,01,MALL,Hengjiang,CN,China
258,455,Debra,400,ELEVATOR,Bąków,PL,Poland
259,789,Dryden,17,ELEVATOR,Quchomo,CN,China
260,299,Moland,0486,MALL,Máncora,PE,Peru
261,114,Troy,47004,MALL,‘Arab ar Rashāydah,PS,Palestinian Territory
262,810,Buhler,1,MALL,Wang Nam Khiao,TH,Thailand
263,746,Algoma,08,ELEVATOR,Schaan,LI,Liechtenstein
264,672,Schiller,92150,AIRPORT,Dingjiayao,CN,China
265,974,Quincy,89023,TRAIN,Tycheró,GR,Greece
266,665,Kingsford,58,SUPERMARKET,Quilmaná,PE,Peru
267,168,Goodland,8621,MALL,Jianggezhuang,CN,China
268,823,Lake View,62643,MALL,Mehtar Lām,AF,Afghanistan
269,619,Arrowood,84,SUBWAY,Vereshchagino,RU,Russia
270,343,Grasskamp,9,SUBWAY,Lahan Sai,TH,Thailand
271,346,Luster,8969,TRAIN,Motegi,JP,Japan
272,232,Sunnyside,215,TRAIN,Porto Feliz,BR,Brazil
273,266,Nelson,1,SUPERMARKET,Leeuwarden,NL,Netherlands
274,211,Homewood,68883,TRAIN,Sirte,LY,Libya
275,647,Meadow Valley,4155,SUPERMARKET,Comallo,AR,Argentina
276,204,Clarendon,8950,TRAIN,Puget-sur-Argens,FR,France
277,881,Brickson Park,678,BUS,Toulon,FR,France
278,401,Cherokee,969,SUBWAY,Huabu,CN,China
279,563,Little Fleur,1444,SUBWAY,Umburarameha,ID,Indonesia
280,879,Green,38003,SUPERMARKET,Una,BR,Brazil
281,618,Hagan,165,SUPERMARKET,Xinsheng,CN,China
282,748,Di Loreto,62370,TRAIN,Linqu,CN,China
283,882,Cambridge,27,MALL,Diamante,AR,Argentina
284,729,Buena Vista,778,SUPERMARKET,Pung-Pang,PH,Philippines
285,462,Eggendart,3543,ELEVATOR,Khānaqāh,AF,Afghanistan
286,674,Hollow Ridge,4,AIRPORT,Krajan Timur Mlokorejo,ID,Indonesia
287,475,Steensland,2,TRAIN,Qionghai,CN,China
288,62,Donald,033,AIRPORT,Karakol,KG,Kyrgyzstan
289,772,Eagan,10,ELEVATOR,Makar’yev,RU,Russia
290,328,Crescent Oaks,871,SUPERMARKET,Las Matas de Farfán,DO,Dominican Republic
291,219,Bunting,180,ELEVATOR,Mabini,PH,Philippines
292,603,Northport,521,TRAIN,Jajar,ID,Indonesia
293,315,Maywood,360,ELEVATOR,Bodø,NO,Norway
294,70,West,594,ELEVATOR,Jiaobei,CN,China
295,218,Waubesa,3399,MALL,Concepción,AR,Argentina
296,959,Novick,090,MALL,Brudzew,PL,Poland
297,2,Vera,00,ELEVATOR,Kadugadung,ID,Indonesia
298,119,La Follette,89527,ELEVATOR,Kasli,RU,Russia
299,834,Grim,3119,ELEVATOR,Yanggu,KR,South Korea
300,805,Hoard,673,SUPERMARKET,Renhe,CN,China
301,832,Barby,14,BUS,Lisboa,PT,Portugal
302,228,Ilene,04091,AIRPORT,Lirung,ID,Indonesia
303,335,Gina,1090,BUS,Peabiru,BR,Brazil
304,507,Kipling,378,MALL,Helsingborg,SE,Sweden
305,224,Lyons,2140,SUPERMARKET,Wielki Kack,PL,Poland
306,604,Main,9,SUPERMARKET,Houston,US,United States
307,860,Debs,90,AIRPORT,Kekeri,ID,Indonesia
308,956,Delaware,05412,ELEVATOR,Henghe,CN,China
309,346,Corben,66570,SUPERMARKET,Yantianhe,CN,China
310,462,Merchant,2,AIRPORT,Konstantynów Łódzki,PL,Poland
311,875,Stuart,06229,MALL,Fastovetskaya,RU,Russia
312,351,Kingsford,56,SUBWAY,Lyon,FR,France
313,327,Commercial,62,AIRPORT,Kaduketug,ID,Indonesia
314,242,Memorial,26245,MALL,Frolovo,RU,Russia
315,424,Basil,119,MALL,Los Cóndores,AR,Argentina
316,683,Dayton,6,TRAIN,Agraharam,IN,India
317,779,Eastlawn,84825,AIRPORT,Florentino Ameghino,AR,Argentina
318,74,School,54,ELEVATOR,Ricardo Palma,PE,Peru
319,140,Fordem,6,SUBWAY,Ribeirão Pires,BR,Brazil
320,246,Jenifer,875,AIRPORT,Mīrpur Sakro,PK,Pakistan
321,922,Grasskamp,28,TRAIN,Kafr ad Dīk,PS,Palestinian Territory
322,381,Tony,46271,ELEVATOR,San Benito,GT,Guatemala
323,932,Lighthouse Bay,3,TRAIN,Shuihu,CN,China
324,757,Loeprich,52,BUS,Ongandjera,NA,Namibia
325,244,Rusk,94,SUBWAY,Mount Ayliff,ZA,South Africa
326,426,Loeprich,7,TRAIN,Heřmanova Huť,CZ,Czech Republic
327,492,Sutherland,57,SUPERMARKET,Sukasenang,ID,Indonesia
328,39,Di Loreto,00132,BUS,Xiyang,CN,China
329,85,Beilfuss,3,TRAIN,Ujae,MH,Marshall Islands
330,574,Jana,3,BUS,Locminé,FR,France
331,784,Ilene,9,ELEVATOR,Jiangtou,CN,China
332,702,Hovde,1,ELEVATOR,Balkh,AF,Afghanistan
333,40,Hansons,1,BUS,Ungsang,KR,South Korea
334,359,Mcguire,11884,AIRPORT,Dasht-e Lati,IR,Iran
335,574,Hazelcrest,1257,SUPERMARKET,Skoútari,GR,Greece
336,334,Portage,8,AIRPORT,Tungi,BD,Bangladesh
337,930,Gateway,628,SUBWAY,La Plata,AR,Argentina
338,388,Brown,351,SUBWAY,Brejoeira,PT,Portugal
339,400,Ronald Regan,409,BUS,Jianyangping,CN,China
340,950,Ilene,7490,BUS,Qal‘ah-ye Kuhnah,AF,Afghanistan
341,721,Fremont,4906,AIRPORT,Taiping,CN,China
342,233,Jenifer,53,SUBWAY,Orlando,US,United States
343,543,Nova,879,ELEVATOR,Pailitas,CO,Colombia
344,201,Knutson,190,MALL,Jinjiahe,CN,China
345,530,Paget,276,TRAIN,Orocué,CO,Colombia
346,710,Gateway,73056,ELEVATOR,Siemkowice,PL,Poland
347,721,Almo,137,SUBWAY,Kedungtuban,ID,Indonesia
348,417,Mccormick,064,MALL,Kecskemét,HU,Hungary
349,491,Nevada,95,AIRPORT,Kotauneng,ID,Indonesia
350,154,Del Sol,3348,AIRPORT,Lacolle,CA,Canada
351,204,Dryden,324,ELEVATOR,Chesma,RU,Russia
352,494,Declaration,5734,AIRPORT,Santa Cruz,PH,Philippines
353,493,Bluestem,5,ELEVATOR,Sangtian,CN,China
354,725,Corben,33,SUPERMARKET,Sepanjang,ID,Indonesia
355,270,Miller,70,SUBWAY,Bechlín,CZ,Czech Republic
356,726,Mayfield,81,SUPERMARKET,Castrovirreyna,PE,Peru
357,852,Lillian,5,ELEVATOR,Ostaszewo,PL,Poland
358,590,Parkside,8675,BUS,Tetebatu,ID,Indonesia
359,955,Moose,71,SUPERMARKET,Sala,SE,Sweden
360,723,Springview,13,BUS,Singajaya,ID,Indonesia
361,327,Lien,19064,BUS,Leran,ID,Indonesia
362,505,Ridge Oak,22,SUBWAY,Bent Jbaïl,LB,Lebanon
363,217,Graedel,9815,SUBWAY,Tulsīpur,NP,Nepal
364,19,La Follette,51,AIRPORT,Sumberkindagan,ID,Indonesia
365,745,Tennyson,72,AIRPORT,Vazante,BR,Brazil
366,792,Butternut,6932,BUS,Rotterdam postbusnummers,NL,Netherlands
367,983,Hintze,7,SUBWAY,Ključ,BA,Bosnia and Herzegovina
368,19,Daystar,58,SUBWAY,Xiazhai,CN,China
369,806,Maple Wood,431,SUPERMARKET,Oltinko’l,UZ,Uzbekistan
370,131,Artisan,8,MALL,København,DK,Denmark
371,449,Waywood,43636,BUS,La Jagua de Ibirico,CO,Colombia
372,274,Lyons,4965,SUBWAY,Tartagal,AR,Argentina
373,239,Nova,2824,MALL,Yihe,CN,China
374,722,Claremont,12981,MALL,Shishan,CN,China
375,730,Rusk,10102,SUPERMARKET,Altuf’yevskiy,RU,Russia
376,481,Anhalt,7053,SUBWAY,Tandayag,PH,Philippines
377,553,Boyd,2916,MALL,Ban Selaphum,TH,Thailand
378,941,Rigney,85486,AIRPORT,Katunayaka,LK,Sri Lanka
379,709,Sherman,13,BUS,Lobos,AR,Argentina
380,487,Vera,638,AIRPORT,Gostilitsy,RU,Russia
381,291,Twin Pines,36675,SUPERMARKET,Āshtīān,IR,Iran
382,776,Sutherland,8,SUPERMARKET,Dunleer,IE,Ireland
383,711,Kedzie,728,SUBWAY,Selemadeg Kelod,ID,Indonesia
384,423,Iowa,1109,ELEVATOR,Al Maḩjal,YE,Yemen
385,432,Lyons,74851,BUS,Sitangkai,PH,Philippines
386,858,Sycamore,83,MALL,Rybatskoye,RU,Russia
387,821,Gateway,93,TRAIN,Malekān,IR,Iran
388,535,Valley Edge,624,SUPERMARKET,Yazykovo,RU,Russia
389,966,Northwestern,34879,MALL,Zavet,BG,Bulgaria
390,366,Scott,378,ELEVATOR,Jingguan,CN,China
391,148,Dottie,384,ELEVATOR,Labuhantanggabesar,ID,Indonesia
392,620,Pawling,8970,SUBWAY,El Pino,DO,Dominican Republic
393,606,Tennessee,44417,SUPERMARKET,Talangnan,PH,Philippines
394,621,Helena,80944,ELEVATOR,Pandansari,ID,Indonesia
395,319,Warrior,15183,SUBWAY,Pijao,CO,Colombia
396,845,Village,42850,BUS,Ejmiatsin,AM,Armenia
397,750,Mcguire,2528,MALL,San Salvador,PE,Peru
398,512,Bellgrove,1,SUBWAY,Lenchwe Le Tau,BW,Botswana
399,252,Dottie,2,TRAIN,Stepanivka,UA,Ukraine
400,753,Donald,09,AIRPORT,Gengma,CN,China
401,537,Kingsford,83601,MALL,Bjuv,SE,Sweden
402,319,Daystar,5321,SUBWAY,Rozwadza,PL,Poland
403,319,Sunbrook,06,SUPERMARKET,Karangbadar Kidul,ID,Indonesia
404,67,American Ash,2387,AIRPORT,Siekierczyn,PL,Poland
405,650,Vidon,74,ELEVATOR,Duayaw Nkwanta,GH,Ghana
406,683,Leroy,3,ELEVATOR,Téra,NE,Niger
407,678,Vermont,90,MALL,Örebro,SE,Sweden
408,598,Sunfield,803,TRAIN,Sujitan,CN,China
409,820,Granby,4,SUBWAY,Dar Chabanne,TN,Tunisia
410,139,Warrior,82,AIRPORT,Chang’an,CN,China
411,332,Lakewood Gardens,487,AIRPORT,Karangagung Timur,ID,Indonesia
412,287,Marquette,42289,TRAIN,Ngantru,ID,Indonesia
413,41,South,627,TRAIN,Roma,IT,Italy
414,589,Briar Crest,02,SUPERMARKET,Nong Muang Khai,TH,Thailand
415,611,Mesta,35,ELEVATOR,Dzięgielów,PL,Poland
416,983,Crowley,25,BUS,Chengxi,CN,China
417,714,Norway Maple,50,MALL,Inglewood,US,United States
418,865,Novick,22,ELEVATOR,Sam Chuk,TH,Thailand
419,235,Miller,942,SUBWAY,Longxian Chengguanzhen,CN,China
420,82,Dorton,075,ELEVATOR,Si Ma Cai,VN,Vietnam
421,513,Stoughton,340,MALL,La Esperanza,PE,Peru
422,195,Mccormick,291,AIRPORT,Atlanta,US,United States
423,491,Welch,1061,BUS,Mandaue City,PH,Philippines
424,128,American,7991,ELEVATOR,Flushing,US,United States
425,364,Veith,3375,SUPERMARKET,Yezhou,CN,China
426,345,Claremont,66403,MALL,Saint-Denis,RE,Reunion
427,335,Portage,8,MALL,Wadung,ID,Indonesia
428,687,Prairie Rose,14,BUS,Verkhniy Mamon,RU,Russia
429,558,Hermina,1,AIRPORT,Shebalino,RU,Russia
430,246,Sullivan,5518,BUS,Vilhena,BR,Brazil
431,124,Erie,886,MALL,Halton,GB,United Kingdom
432,337,West,4482,MALL,Huangbu,CN,China
433,980,Scofield,916,AIRPORT,Cintra,AR,Argentina
434,266,Autumn Leaf,67,ELEVATOR,Přibyslav,CZ,Czech Republic
435,135,Hudson,868,SUBWAY,Volokolamsk,RU,Russia
436,936,Glendale,77907,MALL,Shikou,CN,China
437,784,Forest Dale,40,ELEVATOR,Tucano,BR,Brazil
438,392,Bultman,3,BUS,Sukasenang,ID,Indonesia
439,841,Main,5,SUBWAY,Sawahan,ID,Indonesia
440,371,Bowman,44,MALL,Īz̄eh,IR,Iran
441,660,Cardinal,397,TRAIN,Montería,CO,Colombia
442,898,Stone Corner,62,MALL,Nowy Staw,PL,Poland
443,798,Hansons,8352,SUBWAY,Mpraeso,GH,Ghana
444,234,Bluestem,400,ELEVATOR,San Salvador,PE,Peru
445,125,Algoma,1,MALL,Zhixia,CN,China
446,489,Ridgeview,618,MALL,Maoping,CN,China
447,546,Randy,48,BUS,Emiliano Zapata,MX,Mexico
448,727,Ridgeway,50,TRAIN,Tucano,BR,Brazil
449,352,Elka,33,BUS,Witzenhausen,DE,Germany
450,720,Vera,972,BUS,Ya’erya,CN,China
451,990,Thackeray,67929,SUPERMARKET,Louisville,US,United States
452,13,Sherman,54327,MALL,Lengji,CN,China
453,849,Sugar,4385,TRAIN,Portela,PT,Portugal
454,267,Bluejay,386,MALL,Wabana,CA,Canada
455,3,Sutherland,70978,ELEVATOR,Bisert’,RU,Russia
456,12,Calypso,1901,BUS,Arnprior,CA,Canada
457,991,Chive,64428,ELEVATOR,Xingong,CN,China
458,762,Carioca,288,BUS,Xilin,CN,China
459,524,Debra,6,SUBWAY,Iraray,PH,Philippines
460,257,Waubesa,686,ELEVATOR,Quezon,PH,Philippines
461,643,Eastlawn,8605,AIRPORT,Kävlinge,SE,Sweden
462,773,Granby,4053,AIRPORT,Vårgårda,SE,Sweden
463,903,Cherokee,8706,MALL,Baishi,CN,China
464,334,Laurel,10957,SUBWAY,Mesquite,US,United States
465,52,Holy Cross,8380,BUS,São Miguel de Machede,PT,Portugal
466,247,Raven,8,MALL,Rufino,AR,Argentina
467,565,3rd,5,MALL,Krajan,ID,Indonesia
468,56,Nevada,1115,SUBWAY,Morales,CO,Colombia
469,40,Cherokee,4,AIRPORT,Cova Figueira,CV,Cape Verde
470,383,Talisman,0,BUS,Santa Ana,US,United States
471,142,Mifflin,1665,MALL,Reshetikha,RU,Russia
472,595,Londonderry,238,AIRPORT,Xigangzi,CN,China
473,856,Porter,029,BUS,Bopu,CN,China
474,651,Buena Vista,923,ELEVATOR,Cayenne,GF,French Guiana
475,430,Corry,04350,TRAIN,Złotoryja,PL,Poland
476,106,Spenser,77700,TRAIN,Cortes,PH,Philippines
477,271,Annamark,56443,MALL,Julun,CN,China
478,855,Nobel,24040,MALL,Krajan Alastengah,ID,Indonesia
479,548,Holy Cross,9081,SUPERMARKET,San Juan,PH,Philippines
480,929,Crowley,10,TRAIN,Yidu,CN,China
481,698,Delladonna,7956,TRAIN,Oliver,CA,Canada
482,207,Shopko,07988,TRAIN,Jiancha,CN,China
483,389,Dwight,54,BUS,Patitírion,GR,Greece
484,747,Chive,9247,TRAIN,Kobiernice,PL,Poland
485,684,Oxford,0,SUBWAY,Orlando,US,United States
486,849,Havey,79814,SUPERMARKET,Daming,CN,China
487,476,Buena Vista,079,SUBWAY,Mirów,PL,Poland
488,192,Morningstar,96,MALL,Jõhvi,EE,Estonia
489,663,Logan,8508,TRAIN,Sampit,ID,Indonesia
490,661,Shopko,2,SUPERMARKET,Shigu,CN,China
491,103,Huxley,97,SUPERMARKET,Shunling,CN,China
492,92,Kipling,2338,SUBWAY,Karangtengah,ID,Indonesia
493,733,Nova,44391,SUBWAY,Botao,PH,Philippines
494,144,Corscot,14,SUPERMARKET,Mbaké,SN,Senegal
495,520,Trailsway,7243,AIRPORT,Zhajin,CN,China
496,431,Mayer,4,SUBWAY,Năm Căn,VN,Vietnam
497,311,Tomscot,09,ELEVATOR,Cipunglu,ID,Indonesia
498,37,Fremont,54,ELEVATOR,Las Vegas,US,United States
499,295,International,251,ELEVATOR,Fort Worth,US,United States
500,934,Eagle Crest,0,ELEVATOR,Malekān,IR,Iran
501,594,Stoughton,881,BUS,Zhangfang,CN,China
502,335,Bayside,567,MALL,Íquira,CO,Colombia
503,892,Texas,3517,TRAIN,Fornos,PT,Portugal
504,258,Gateway,31051,AIRPORT,Qikeshu,CN,China
505,420,Jenna,5,SUPERMARKET,Colorado Springs,US,United States
506,272,Anzinger,1,BUS,Fenshui,CN,China
507,248,Hoepker,3,MALL,San Francisco,US,United States
508,527,Messerschmidt,29,BUS,Stanari,BA,Bosnia and Herzegovina
509,862,Erie,4,BUS,Maradi,NE,Niger
510,201,Cambridge,61178,AIRPORT,Ciudian,ID,Indonesia
511,789,Ruskin,758,SUBWAY,Wendo,ET,Ethiopia
512,459,Waxwing,0846,ELEVATOR,Lady Grey,ZA,South Africa
513,900,Bluestem,77693,BUS,Jinan,CN,China
514,687,Londonderry,04,SUPERMARKET,Omboué,GA,Gabon
515,508,Armistice,24232,AIRPORT,Bunder,ID,Indonesia
516,399,Esch,7880,TRAIN,Mandikbatu,ID,Indonesia
517,840,Loftsgordon,35504,BUS,Zhaojia,CN,China
518,418,Twin Pines,16,AIRPORT,Shenkou,CN,China
519,946,Heath,74,AIRPORT,Tanguá,BR,Brazil
520,44,Springview,5,MALL,Trat,TH,Thailand
521,949,Ridge Oak,5,SUPERMARKET,Tivat,ME,Montenegro
522,573,Gulseth,9282,BUS,Karelichy,BY,Belarus
523,727,Gerald,99300,BUS,Haenam,KR,South Korea
524,601,Fairview,723,SUBWAY,Lixin,CN,China
525,38,Pepper Wood,97731,SUPERMARKET,Xiantang,CN,China
526,129,Clove,631,SUPERMARKET,Sangallaya,PE,Peru
527,526,East,3,SUBWAY,Las Cruces,US,United States
528,187,Monica,99,ELEVATOR,Wangchang,CN,China
529,537,Fairview,5263,MALL,Leudelange,LU,Luxembourg
530,625,Fallview,231,AIRPORT,Taklale,ID,Indonesia
531,62,Myrtle,2,ELEVATOR,Durazno,UY,Uruguay
532,918,Waywood,4,BUS,Shuanggang,CN,China
533,922,Bunting,68,MALL,San José,GT,Guatemala
534,349,Haas,651,AIRPORT,La Banda,AR,Argentina
535,636,Melvin,25843,TRAIN,Santa Rosa,MX,Mexico
536,830,Loftsgordon,4,AIRPORT,Porto Alto,PT,Portugal
537,851,Brown,80854,MALL,Port Washington,US,United States
538,661,Judy,64658,MALL,Abuko,GM,Gambia
539,393,Glendale,67080,ELEVATOR,Wolfsberg,AT,Austria
540,453,Maple,474,BUS,Jugezhuang,CN,China
541,160,Di Loreto,1526,SUBWAY,Petrodvorets,RU,Russia
542,480,Longview,02798,BUS,Plewiska,PL,Poland
543,621,Service,240,AIRPORT,Zhangjiaji,CN,China
544,995,Lakeland,473,TRAIN,Tiztoutine,MA,Morocco
545,627,Express,9,MALL,Tambir,ID,Indonesia
546,154,Vahlen,74372,ELEVATOR,Kohāt,PK,Pakistan
547,897,Golf View,9524,ELEVATOR,Vila Alva,PT,Portugal
548,738,Duke,0,MALL,Zhuge,CN,China
549,222,Ilene,253,BUS,Papringan,ID,Indonesia
550,555,Hermina,3,MALL,Algarvia,PT,Portugal
551,477,Tennyson,27,TRAIN,Ivot,RU,Russia
552,315,Gulseth,52,MALL,Handa,JP,Japan
553,849,Mandrake,07543,ELEVATOR,Daba,CN,China
554,437,Aberg,2,AIRPORT,Dacheng,CN,China
555,60,Lake View,9,SUBWAY,Tanjay,PH,Philippines
556,732,Swallow,104,AIRPORT,Halamendu,CN,China
557,216,Gulseth,2343,TRAIN,La Esperanza,MX,Mexico
558,827,Arapahoe,6,TRAIN,Kokas,ID,Indonesia
559,730,Jay,555,BUS,Gurupi,BR,Brazil
560,947,Monument,99009,SUPERMARKET,Głowno,PL,Poland
561,359,New Castle,275,BUS,Lugulu,KE,Kenya
562,537,North,2967,TRAIN,Lowayu,ID,Indonesia
563,384,Welch,04,ELEVATOR,Yotsukaidō,JP,Japan
564,80,Lawn,85,SUBWAY,Ivanava,BY,Belarus
565,130,Packers,14,SUPERMARKET,Beauvais,FR,France
566,567,Meadow Valley,88,SUPERMARKET,Giawang,PH,Philippines
567,324,Dwight,45,MALL,New Orleans,US,United States
568,729,Texas,0,SUPERMARKET,Klukeng,ID,Indonesia
569,93,Becker,1,SUPERMARKET,Daitou,CN,China
570,614,Vernon,95,ELEVATOR,Agago,UG,Uganda
571,841,Blackbird,931,SUPERMARKET,Saint-Paul,RE,Reunion
572,716,Sherman,236,TRAIN,Mākū,IR,Iran
573,747,Dovetail,1,TRAIN,Nový Bor,CZ,Czech Republic
574,155,Dawn,060,SUPERMARKET,Xumai,CN,China
575,755,Monument,22171,AIRPORT,Las Animas,MX,Mexico
576,330,Lukken,04,BUS,Portland,US,United States
577,805,Barnett,9859,BUS,Lages,PT,Portugal
578,91,Manley,5356,SUBWAY,Paris 08,FR,France
579,462,Hanover,52830,SUBWAY,Wao,PH,Philippines
580,263,Monica,59830,MALL,Macapsing,PH,Philippines
581,894,Del Sol,13,ELEVATOR,Abastumani,GE,Georgia
582,756,Westerfield,85,TRAIN,Anopog,PH,Philippines
583,317,Garrison,855,MALL,Mosteiro,PT,Portugal
584,816,Mitchell,17,TRAIN,Falun,SE,Sweden
585,222,Fremont,50285,SUPERMARKET,Luoxiong,CN,China
586,420,Lakewood Gardens,8289,MALL,Qarchī Gak,AF,Afghanistan
587,493,Dayton,68,TRAIN,Beigao,CN,China
588,43,Oriole,3031,BUS,Cajazeiras,BR,Brazil
589,500,Moland,887,AIRPORT,Dongjiao,CN,China
590,512,Shasta,4,SUBWAY,Avignon,FR,France
591,934,Stoughton,04712,SUPERMARKET,Ovsyanka,RU,Russia
592,481,Sheridan,7587,TRAIN,Ljungskile,SE,Sweden
593,56,Comanche,8,AIRPORT,Lianhua,CN,China
594,978,Roxbury,12757,TRAIN,Mīāndoāb,IR,Iran
595,445,Onsgard,966,BUS,Cakungsari,ID,Indonesia
596,730,Fallview,34,SUBWAY,Prochowice,PL,Poland
597,786,Wayridge,89,ELEVATOR,Oibioin,ID,Indonesia
598,785,Northwestern,282,MALL,Morani,MK,Macedonia
599,447,Darwin,00189,SUBWAY,Saño,PE,Peru
600,501,American Ash,263,MALL,Gävle,SE,Sweden
601,248,Debra,65417,ELEVATOR,Guaramirim,BR,Brazil
602,52,Welch,6434,MALL,Banos,PH,Philippines
603,262,Morning,1990,ELEVATOR,Cileles,ID,Indonesia
604,1000,Aberg,242,AIRPORT,Abreus,CU,Cuba
605,911,Delladonna,277,AIRPORT,Dehang,CN,China
606,953,Tennyson,27717,TRAIN,Frederiksberg,DK,Denmark
607,264,Corscot,67458,MALL,Savski Venac,RS,Serbia
608,426,Kensington,84,SUBWAY,Bombarral,PT,Portugal
609,148,Grayhawk,2,ELEVATOR,Caja,PE,Peru
610,369,Coolidge,9329,SUBWAY,Mafra,PT,Portugal
611,224,Buhler,524,AIRPORT,Genet,ET,Ethiopia
612,841,Spenser,078,SUPERMARKET,Zákynthos,GR,Greece
613,825,Dottie,5,MALL,Agogo,GH,Ghana
614,99,Merchant,422,SUPERMARKET,Mambi,ID,Indonesia
615,555,Anzinger,02544,AIRPORT,Ganting,CN,China
616,334,Continental,8880,TRAIN,Jūrat ash Sham‘ah,PS,Palestinian Territory
617,531,Sycamore,02620,SUBWAY,Balbalan,PH,Philippines
618,526,Esker,9,SUPERMARKET,Lis,AL,Albania
619,703,Warner,1,MALL,Yamethin,MM,Myanmar
620,590,Center,5,SUPERMARKET,Montpellier,FR,France
621,53,Scott,71,ELEVATOR,Zarichchya,UA,Ukraine
622,120,Bonner,024,SUBWAY,Setaka,JP,Japan
623,617,2nd,98295,SUPERMARKET,Labuan,PH,Philippines
624,702,Stoughton,4303,AIRPORT,Vorontsovka,RU,Russia
625,342,Gina,4,AIRPORT,Yong’an,CN,China
626,940,Hoffman,91327,MALL,Makariv,UA,Ukraine
627,265,Esch,566,SUBWAY,Mufushan,CN,China
628,934,Dixon,124,MALL,Pinhão,BR,Brazil
629,126,Arizona,1977,SUBWAY,Nangabere,ID,Indonesia
630,894,Surrey,277,AIRPORT,Labuhantanggabesar,ID,Indonesia
631,96,Thackeray,3,SUBWAY,Kristiansand S,NO,Norway
632,226,4th,7,MALL,Cáceres,CO,Colombia
633,953,Sachtjen,82388,AIRPORT,Mulyorejo,ID,Indonesia
634,993,Oneill,14236,TRAIN,Mercedes,AR,Argentina
635,249,Mockingbird,212,AIRPORT,Didou,CN,China
636,856,Forest,63,SUPERMARKET,Desa Baregbeg,ID,Indonesia
637,225,Oriole,5,TRAIN,Göteborg,SE,Sweden
638,853,Manley,300,TRAIN,Dzüyl,MN,Mongolia
639,540,Holmberg,4527,AIRPORT,Bama,NG,Nigeria
640,179,Elka,6958,BUS,Siguiri,GN,Guinea
641,462,Kedzie,54289,TRAIN,Sunzhen,CN,China
642,520,Stuart,738,BUS,Sandweiler,LU,Luxembourg
643,466,Redwing,314,BUS,Chenzhouzhai,CN,China
644,57,Scoville,1,SUBWAY,New York City,US,United States
645,828,Fair Oaks,4368,BUS,Negararatu,ID,Indonesia
646,639,Stoughton,55120,SUBWAY,Haolin,CN,China
647,109,Kropf,8389,BUS,Baligród,PL,Poland
648,178,Prairieview,3098,SUBWAY,Zhireken,RU,Russia
649,567,Florence,756,ELEVATOR,Furukawa,JP,Japan
650,264,Oneill,93,SUPERMARKET,Mujur Satu,ID,Indonesia
651,835,Hovde,0,SUPERMARKET,Açu,BR,Brazil
652,673,Coleman,83417,AIRPORT,Le Hochet,MU,Mauritius
653,921,Wayridge,6,SUBWAY,Karangasem,ID,Indonesia
654,262,Corry,4,MALL,Cijangkar,ID,Indonesia
655,3,Heffernan,80,BUS,Okigwi,NG,Nigeria
656,325,Pankratz,8,SUBWAY,Kyaka,TZ,Tanzania
657,923,Ronald Regan,37,TRAIN,Heyan,CN,China
658,224,Nelson,11,TRAIN,Paris 07,FR,France
659,933,Starling,208,MALL,Kurihashi,JP,Japan
660,786,Basil,6026,SUPERMARKET,Tārūt,SA,Saudi Arabia
661,748,Evergreen,015,BUS,Nanyang,CN,China
662,720,Bunting,33605,ELEVATOR,Ragay,PH,Philippines
663,574,Welch,460,AIRPORT,Taiyang,CN,China
664,404,Grover,63348,ELEVATOR,Conduaga,PH,Philippines
665,872,Westend,552,SUPERMARKET,Muldersdriseloop,ZA,South Africa
666,3,Bobwhite,707,MALL,Tobelo,ID,Indonesia
667,388,International,4076,AIRPORT,Jarada,ID,Indonesia
668,803,Ridgeway,9,TRAIN,Johor Bahru,MY,Malaysia
669,214,Oxford,8743,AIRPORT,Dovhe,UA,Ukraine
670,56,Butternut,01213,BUS,Hazlov,CZ,Czech Republic
671,429,Spohn,3,SUBWAY,Armanāz,SY,Syria
672,887,Spohn,2801,BUS,Iradan,KG,Kyrgyzstan
673,744,Arapahoe,49,SUPERMARKET,Kopidlno,CZ,Czech Republic
674,291,Oak Valley,3230,ELEVATOR,Kalapanunggal,ID,Indonesia
675,389,Banding,78,SUPERMARKET,Guanyao,CN,China
676,682,Hollow Ridge,3,AIRPORT,Jianfeng,CN,China
677,404,Hintze,6825,SUPERMARKET,Aigínio,GR,Greece
678,955,Marcy,67,ELEVATOR,Samran,TH,Thailand
679,463,Dorton,766,MALL,Apeldoorn,NL,Netherlands
680,373,Maple,470,TRAIN,Reforma,MX,Mexico
681,911,Warrior,70828,SUPERMARKET,Puszczykowo,PL,Poland
682,625,John Wall,2937,ELEVATOR,Sokolniki,PL,Poland
683,191,Fairview,38300,BUS,Manwakh,YE,Yemen
684,237,Reindahl,5,AIRPORT,Jambuir Timur,ID,Indonesia
685,654,Sauthoff,09727,MALL,Michałowice,PL,Poland
686,664,Emmet,271,ELEVATOR,Champaign,US,United States
687,252,Westerfield,45,MALL,Ngurenrejo,ID,Indonesia
688,176,Mcguire,7,AIRPORT,Nal’chik,RU,Russia
689,617,Briar Crest,99550,SUBWAY,Jianfeng,CN,China
690,125,Sachtjen,113,ELEVATOR,Kärdla,EE,Estonia
691,951,South,23642,SUBWAY,Varaždin,HR,Croatia
692,143,Reindahl,183,SUBWAY,Pak Chom,TH,Thailand
693,411,Ridgeview,0,TRAIN,Embarcación,AR,Argentina
694,273,Coolidge,62,ELEVATOR,Jining,CN,China
695,71,Bonner,789,ELEVATOR,Sukasari,ID,Indonesia
696,334,Sycamore,13963,ELEVATOR,Fuyo,KR,South Korea
697,551,Bayside,054,AIRPORT,Baabda,LB,Lebanon
698,521,Miller,7584,TRAIN,Enskede,SE,Sweden
699,507,Bunker Hill,54530,SUBWAY,Tyarlevo,RU,Russia
700,708,David,14,ELEVATOR,Tshikapa,CD,Democratic Republic of the Congo
701,335,Melby,61491,BUS,Fukagawa,JP,Japan
702,593,Banding,93275,TRAIN,Nueva Manoa,BO,Bolivia
703,988,Gerald,0,ELEVATOR,Komiža,HR,Croatia
704,501,Leroy,56,AIRPORT,Oelaba,ID,Indonesia
705,455,Twin Pines,427,SUBWAY,Lupane,ZW,Zimbabwe
706,110,Logan,8800,SUPERMARKET,Vredendal,ZA,South Africa
707,110,Ruskin,19,ELEVATOR,Patpata Segundo,PH,Philippines
708,797,Rieder,310,BUS,Moshkovo,RU,Russia
709,493,Calypso,3,AIRPORT,Kouvola,FI,Finland
710,456,Farmco,660,TRAIN,Bao’an,CN,China
711,168,Eagle Crest,0733,MALL,Veinticinco de Mayo,AR,Argentina
712,511,Northport,4385,TRAIN,Ińsko,PL,Poland
713,235,Pankratz,0144,TRAIN,Tongquan,CN,China
714,926,Norway Maple,23011,BUS,Piojó,CO,Colombia
715,324,Warbler,532,MALL,Iradan,KG,Kyrgyzstan
716,807,Gale,8,SUPERMARKET,Gataivai,WS,Samoa
717,564,Talmadge,78495,ELEVATOR,Boncis,ID,Indonesia
718,47,Farragut,346,SUPERMARKET,Dukla,PL,Poland
719,656,Dunning,4,BUS,Camperdown,ZA,South Africa
720,365,School,08,SUPERMARKET,Muyaka,ID,Indonesia
721,131,Manitowish,2006,AIRPORT,Yaviza,PA,Panama
722,508,Marquette,95056,ELEVATOR,Langsa,ID,Indonesia
723,809,Ludington,05944,SUBWAY,Cache Creek,CA,Canada
724,207,Maple Wood,19494,SUBWAY,Moulins,FR,France
725,532,Alpine,0,AIRPORT,Lady Frere,ZA,South Africa
726,898,Clyde Gallagher,8,MALL,Kista,SE,Sweden
727,232,Clyde Gallagher,8017,AIRPORT,Cholpon-Ata,KG,Kyrgyzstan
728,154,Arapahoe,6,MALL,El Hamma,TN,Tunisia
729,156,Graceland,78571,TRAIN,Da’anshan,CN,China
730,892,Annamark,602,MALL,Portela,PT,Portugal
731,675,Buell,605,ELEVATOR,Toulouse,FR,France
732,1000,Talisman,016,TRAIN,Laï,TD,Chad
733,825,Novick,65718,ELEVATOR,Xinjiang,CN,China
734,518,Quincy,33143,SUBWAY,Sanhe,CN,China
735,664,Daystar,24085,MALL,Brooklyn,NZ,New Zealand
736,884,American Ash,3058,ELEVATOR,Khānewāl,PK,Pakistan
737,873,Reinke,4641,BUS,Klina,XK,Kosovo
738,780,Melvin,594,AIRPORT,Santo Antônio da Platina,BR,Brazil
739,86,Sheridan,30,BUS,Mojimán,HN,Honduras
740,296,Cascade,180,TRAIN,El Pao,VE,Venezuela
741,661,Elka,525,SUBWAY,Skópelos,GR,Greece
742,197,Lindbergh,28,ELEVATOR,Gierłoż,PL,Poland
743,505,Melvin,6706,SUPERMARKET,Lelystad,NL,Netherlands
744,858,New Castle,88,BUS,Muraharjo,ID,Indonesia
745,208,Sundown,3104,AIRPORT,Wanrongjiang,CN,China
746,946,Sutherland,3,TRAIN,Yungaisi,CN,China
747,2,Goodland,15987,MALL,Mitsuke,JP,Japan
748,420,Derek,106,AIRPORT,Ulaan Khat,MN,Mongolia
749,663,Kenwood,24,AIRPORT,Sabana Grande,VE,Venezuela
750,346,Crest Line,30443,BUS,Houjiagang,CN,China
751,43,Bultman,0,AIRPORT,Khvalovo,RU,Russia
752,362,Burrows,4,SUPERMARKET,Kinamayan,PH,Philippines
753,661,Lunder,0485,AIRPORT,San Andrés,GT,Guatemala
754,418,Sugar,586,SUBWAY,Popil'nya,UA,Ukraine
755,915,Dakota,7859,SUBWAY,Río Grande,DO,Dominican Republic
756,657,Sage,6,ELEVATOR,Zhongzuiling,CN,China
757,926,Cottonwood,337,ELEVATOR,Tanjungsari Barat,ID,Indonesia
758,454,Arkansas,7761,TRAIN,Lewotukan,ID,Indonesia
759,425,Cottonwood,8,ELEVATOR,Karlshamn,SE,Sweden
760,719,Claremont,4,TRAIN,Dunyāpur,PK,Pakistan
761,377,Kings,74,ELEVATOR,Xianchiyu,CN,China
762,663,Portage,6032,SUPERMARKET,Lipa City,PH,Philippines
763,816,Roxbury,610,SUBWAY,Gazanjyk,TM,Turkmenistan
764,961,Grover,8847,SUPERMARKET,Pacov,CZ,Czech Republic
765,171,Lawn,5,AIRPORT,Shuikou,CN,China
766,756,East,34541,TRAIN,Farkaždin,RS,Serbia
767,176,Hanson,613,ELEVATOR,Burevestnik,RU,Russia
768,922,Bultman,82805,MALL,Providence,MU,Mauritius
769,212,Park Meadow,965,TRAIN,Requena,PE,Peru
770,799,Sugar,76995,TRAIN,Hasuda,JP,Japan
771,520,Waywood,7,SUPERMARKET,Kotel’va,UA,Ukraine
772,9,Hazelcrest,623,AIRPORT,Iñapari,PE,Peru
773,709,Pond,07,SUBWAY,Dadamtu,CN,China
774,951,Vahlen,85208,SUPERMARKET,Samajie Ewenkeminzu,CN,China
775,465,International,0,TRAIN,Sumberarumkrajan,ID,Indonesia
776,959,Roxbury,83,BUS,Angelochóri,GR,Greece
777,888,Spenser,2,BUS,Västra Frölunda,SE,Sweden
778,681,Caliangt,025,TRAIN,Larvik,NO,Norway
779,582,Calypso,9584,SUPERMARKET,Mancos,PE,Peru
780,203,Shopko,7,AIRPORT,Novoorsk,RU,Russia
781,790,Sycamore,45,MALL,Shuhe,CN,China
782,664,Bunker Hill,54990,ELEVATOR,Kerkrade,NL,Netherlands
783,929,Stoughton,739,SUBWAY,Koysinceq,IQ,Iraq
784,371,Eliot,772,ELEVATOR,El Salitre,MX,Mexico
785,9,Manitowish,14548,SUPERMARKET,Marau,BR,Brazil
786,483,Loomis,1,ELEVATOR,Sobral,PT,Portugal
787,86,Blaine,0802,SUBWAY,Venlo,NL,Netherlands
788,932,Pine View,49,SUBWAY,El Paso,US,United States
789,191,Westerfield,05937,MALL,Kępice,PL,Poland
790,765,Eastwood,6717,ELEVATOR,Polazna,RU,Russia
791,191,Lukken,520,TRAIN,Suishan,CN,China
792,358,Kim,75,SUBWAY,Shangyuan,CN,China
793,66,Ilene,8675,SUPERMARKET,Ortiga,PT,Portugal
794,922,Meadow Valley,8115,TRAIN,Zhutang,CN,China
795,956,Rutledge,27,SUBWAY,Guadalupe,MX,Mexico
796,543,Bluestem,9,TRAIN,Poá,BR,Brazil
797,18,East,356,TRAIN,Ferreiros,PT,Portugal
798,845,Lerdahl,389,TRAIN,Kangdong-ŭp,KP,North Korea
799,141,Crest Line,15953,ELEVATOR,Silae,PH,Philippines
800,580,Scoville,3612,SUBWAY,Parizh,RU,Russia
801,619,Tony,69,SUBWAY,Luqiao,CN,China
802,670,Farmco,3871,AIRPORT,Mabyan,YE,Yemen
803,790,Nevada,8727,AIRPORT,San Jose,MX,Mexico
804,736,Garrison,6472,MALL,San Nicolas,PH,Philippines
805,10,Jenna,0436,SUPERMARKET,Benešov,CZ,Czech Republic
806,100,Dahle,0593,AIRPORT,Eqbālīyeh,IR,Iran
807,641,Meadow Ridge,40995,MALL,Kaeng Khoi,TH,Thailand
808,307,Buell,9617,TRAIN,Habartov,CZ,Czech Republic
809,204,American Ash,1671,AIRPORT,Formosa do Rio Preto,BR,Brazil
810,564,Sunfield,112,TRAIN,Faro,PT,Portugal
811,746,Algoma,1507,TRAIN,Mizhhir’ya,UA,Ukraine
812,786,Morning,0121,SUPERMARKET,Tashi,CN,China
813,837,Colorado,64,AIRPORT,Bačka Topola,RS,Serbia
814,886,Grim,08489,SUBWAY,Kantemirovka,RU,Russia
815,210,Steensland,6,SUPERMARKET,Cañasgordas,CO,Colombia
816,493,Badeau,0664,TRAIN,Kirovgrad,RU,Russia
817,162,Hauk,2880,SUPERMARKET,Skerries,IE,Ireland
818,655,Erie,813,SUPERMARKET,Jargalant,MN,Mongolia
819,658,Barby,7,MALL,Catu,BR,Brazil
820,467,Corscot,05164,SUPERMARKET,Zhaigang,CN,China
821,960,Briar Crest,5,BUS,Heshui,CN,China
822,763,Bobwhite,03061,SUPERMARKET,Las Tablas,PA,Panama
823,914,Forster,71572,AIRPORT,Kamuli,UG,Uganda
824,560,Vera,774,SUPERMARKET,Russas,BR,Brazil
825,979,Jenifer,44,ELEVATOR,Singgit,ID,Indonesia
826,433,5th,212,BUS,Chiscas,CO,Colombia
827,327,Corry,045,MALL,Zomba,MW,Malawi
828,489,Morrow,9,TRAIN,Lizhuang,CN,China
829,705,Anzinger,51969,BUS,Passos,BR,Brazil
830,922,Wayridge,1,SUBWAY,Phumĭ Véal Srê,KH,Cambodia
831,600,Oriole,1019,ELEVATOR,Gadon,ID,Indonesia
832,887,Delaware,07,AIRPORT,Askim,NO,Norway
833,166,Memorial,96,BUS,Aigínio,GR,Greece
834,336,Schmedeman,670,SUPERMARKET,Jilin,CN,China
835,844,Ryan,7748,ELEVATOR,Tennō,JP,Japan
836,639,Delaware,9334,AIRPORT,Conde,PT,Portugal
837,939,Carberry,87141,SUPERMARKET,Meijiang,CN,China
838,31,Mcguire,07141,SUBWAY,Ashibetsu,JP,Japan
839,759,Dryden,010,MALL,Gyeongsan-si,KR,South Korea
840,129,Eastlawn,24,AIRPORT,Bom Despacho,BR,Brazil
841,583,Haas,34454,ELEVATOR,Mtsensk,RU,Russia
842,231,Green,4,SUPERMARKET,Ubaté,CO,Colombia
843,520,Mifflin,9,ELEVATOR,Sukowiryo,ID,Indonesia
844,609,Garrison,1623,SUPERMARKET,Bayambang,PH,Philippines
845,365,Melody,73,TRAIN,Nashtā Rūd,IR,Iran
846,344,Sauthoff,1,AIRPORT,Soroti,UG,Uganda
847,125,Mayer,89,MALL,Gaoliang,CN,China
848,846,Arrowood,06677,ELEVATOR,Philadelphia,US,United States
849,694,Jenifer,961,TRAIN,Soutelo,PT,Portugal
850,577,Old Shore,25,SUPERMARKET,Cầu Gồ,VN,Vietnam
851,742,Bartillon,3102,SUPERMARKET,Bouzov,CZ,Czech Republic
852,683,Armistice,8,ELEVATOR,Zibo,CN,China
853,156,Eagan,9,TRAIN,Wulin,CN,China
854,173,Gulseth,31600,TRAIN,Brampton,GB,United Kingdom
855,750,Grasskamp,3089,TRAIN,Muḩradah,SY,Syria
856,89,Redwing,12,MALL,Peruíbe,BR,Brazil
857,6,Forest Dale,94,BUS,Prokhladnyy,RU,Russia
858,754,Norway Maple,749,BUS,Cumanayagua,CU,Cuba
859,152,Melody,6444,MALL,Liuji,CN,China
860,581,Myrtle,909,TRAIN,Skalánion,GR,Greece
861,739,Armistice,20,MALL,Imsida,MT,Malta
862,191,Forest,639,ELEVATOR,Soest,NL,Netherlands
863,979,Havey,90028,MALL,Gândara,PT,Portugal
864,224,Morrow,255,MALL,Falun,SE,Sweden
865,748,Mcbride,57736,SUPERMARKET,Horní Počaply,CZ,Czech Republic
866,634,Melody,814,MALL,Kaloyanovo,BG,Bulgaria
867,881,Haas,5349,SUBWAY,Mölndal,SE,Sweden
868,937,Ilene,9126,BUS,Digne-les-Bains,FR,France
869,57,Arkansas,73767,BUS,Laoxingchang,CN,China
870,538,Riverside,900,AIRPORT,Beloostrov,RU,Russia
871,368,Homewood,80,MALL,Kota Kinabalu,MY,Malaysia
872,102,Bowman,2071,AIRPORT,Garoua Boulaï,CM,Cameroon
873,353,Alpine,06,SUPERMARKET,Tangtuzhui,CN,China
874,465,Killdeer,42,ELEVATOR,Jiaqiao,CN,China
875,841,Calypso,3606,SUBWAY,Daeosin Satu,ID,Indonesia
876,447,Claremont,609,TRAIN,Soledar,UA,Ukraine
877,927,Larry,302,BUS,Hennenman,ZA,South Africa
878,587,Vidon,2377,MALL,Mānānwāla,PK,Pakistan
879,428,Bluestem,8,AIRPORT,Kuilehe,CN,China
880,488,Tennyson,33543,TRAIN,Samannūd,EG,Egypt
881,548,Birchwood,4,AIRPORT,Delong,CN,China
882,419,Northfield,329,MALL,Buritama,BR,Brazil
883,332,Bunker Hill,05,TRAIN,Coolock,IE,Ireland
884,253,Surrey,4828,SUPERMARKET,Pasrūr,PK,Pakistan
885,98,Dexter,14,MALL,Ryazan’,RU,Russia
886,830,Scott,8,TRAIN,Changma,CN,China
887,866,Glacier Hill,5224,BUS,Ngurensiti,ID,Indonesia
888,463,Memorial,53366,MALL,Sharīfābād,IR,Iran
889,500,Florence,49,MALL,Dahe,CN,China
890,408,Dovetail,93461,ELEVATOR,Nepeña,PE,Peru
891,618,Spaight,73446,SUBWAY,Pingshui,CN,China
892,148,Claremont,6,SUBWAY,Cihaladan,ID,Indonesia
893,688,Troy,462,MALL,Wonorejo,ID,Indonesia
894,826,Sommers,9,SUBWAY,Ambat,ID,Indonesia
895,808,Mallory,717,TRAIN,Newport News,US,United States
896,660,Truax,6497,AIRPORT,Nagaracinta,ID,Indonesia
897,450,Cordelia,655,AIRPORT,Dal’nerechensk,RU,Russia
898,871,Menomonie,28,SUBWAY,Gimry,RU,Russia
899,311,New Castle,1,TRAIN,Chahannao,CN,China
900,362,Carberry,50,ELEVATOR,Luoping,CN,China
901,206,Myrtle,8095,SUPERMARKET,São Gonçalo do Amarante,BR,Brazil
902,42,Manitowish,84073,SUBWAY,San Miguel,MX,Mexico
903,192,Dayton,560,BUS,Kanluran,PH,Philippines
904,281,Buena Vista,9,SUBWAY,Bol’shoy Karay,RU,Russia
905,629,Mariners Cove,47104,BUS,Anzhero-Sudzhensk,RU,Russia
906,294,Sullivan,573,MALL,Sendang,ID,Indonesia
907,477,Forest Run,361,SUBWAY,Huangling,CN,China
908,914,Kenwood,0043,ELEVATOR,Nunutba,ID,Indonesia
909,626,Randy,2069,AIRPORT,Reims,FR,France
910,797,Mosinee,8,ELEVATOR,Shangyang,CN,China
911,669,Banding,58630,SUPERMARKET,Tinaquillo,VE,Venezuela
912,58,Florence,43,AIRPORT,San Pedro Jocopilas,GT,Guatemala
913,652,Drewry,034,SUPERMARKET,Garhi Khairo,PK,Pakistan
914,889,Coolidge,27610,SUBWAY,Areado,BR,Brazil
915,115,Tony,837,BUS,Vanves,FR,France
916,128,Sloan,34,AIRPORT,Vereya,RU,Russia
917,83,Talmadge,62,SUBWAY,Adirejo,ID,Indonesia
918,116,Troy,55,ELEVATOR,Shensuo,CN,China
919,197,Bonner,0370,MALL,Chlewiska,PL,Poland
920,710,Ilene,1,AIRPORT,Oslo,NO,Norway
921,877,Fieldstone,796,BUS,Bi’r al ‘Abd,EG,Egypt
922,304,Corscot,00087,BUS,Mangga Dua,ID,Indonesia
923,826,Hoard,940,ELEVATOR,Enhe Hada,CN,China
924,336,Hollow Ridge,75,SUBWAY,Lazeshchyna,UA,Ukraine
925,211,Talmadge,6215,BUS,Santa Rosa,PE,Peru
926,323,Ridgeview,0674,SUPERMARKET,Larochette,LU,Luxembourg
927,254,Schiller,87,SUBWAY,Kanturk,IE,Ireland
928,734,Utah,7499,ELEVATOR,Acobambilla,PE,Peru
929,301,Schurz,1,AIRPORT,Giade,NG,Nigeria
930,640,Farwell,2,SUBWAY,Baiqi,CN,China
931,662,South,4175,TRAIN,Upton,GB,United Kingdom
932,854,Drewry,170,ELEVATOR,Getazat,AM,Armenia
933,324,Village Green,33702,AIRPORT,Amado Nervo,MX,Mexico
934,912,Raven,5941,SUPERMARKET,Piterka,RU,Russia
935,878,Kropf,022,ELEVATOR,Nagornyy,RU,Russia
936,908,Manufacturers,551,TRAIN,Ulricehamn,SE,Sweden
937,945,4th,859,AIRPORT,Javarthushuu,MN,Mongolia
938,867,Dunning,87,SUPERMARKET,L'Union,FR,France
939,963,Monica,35499,TRAIN,Zhangjia,CN,China
940,563,Dwight,059,AIRPORT,Cianorte,BR,Brazil
941,571,Dunning,5,SUPERMARKET,Selorejo,ID,Indonesia
942,762,Fordem,13,SUBWAY,Sukorejo,ID,Indonesia
943,778,Dorton,0403,AIRPORT,Owase,JP,Japan
944,529,Dexter,14968,MALL,Xichang,CN,China
945,445,Thompson,10,BUS,Kontagora,NG,Nigeria
946,895,Forster,7,BUS,Ubiaja,NG,Nigeria
947,577,Banding,3,MALL,Bayān,KW,Kuwait
948,578,Pankratz,6308,SUPERMARKET,Shuangfeng,CN,China
949,26,Dahle,70,TRAIN,Jambean,ID,Indonesia
950,569,Merrick,100,TRAIN,Batal,PH,Philippines
951,67,Dahle,13837,TRAIN,Tuwa,ID,Indonesia
952,657,Fairfield,46,TRAIN,Dolna Banya,BG,Bulgaria
953,859,Summit,2738,AIRPORT,Presa,PT,Portugal
954,481,Manufacturers,5917,AIRPORT,Aeka,ID,Indonesia
955,681,Independence,1,MALL,Hawassa,ET,Ethiopia
956,109,Granby,3598,ELEVATOR,Xinxu,CN,China
957,701,Shasta,52096,TRAIN,Bairro de Santo António,PT,Portugal
958,486,Talisman,45,BUS,Philadelphia,US,United States
959,248,Comanche,2,SUBWAY,Candelaria,PH,Philippines
960,731,Hoard,68143,SUBWAY,Yubileynyy,RU,Russia
961,233,Springview,3,AIRPORT,Roriz,PT,Portugal
962,963,Alpine,4285,MALL,Itapicuru,BR,Brazil
963,100,Sugar,13960,BUS,Malārd,IR,Iran
964,148,Sunnyside,7,ELEVATOR,Utrecht (stad),NL,Netherlands
965,115,Bowman,0,ELEVATOR,Chitungwiza,ZW,Zimbabwe
966,543,Mcguire,96441,SUBWAY,Puck,PL,Poland
967,42,Lindbergh,9,SUPERMARKET,Paris 19,FR,France
968,28,Debs,4,AIRPORT,Murovanoye,UA,Ukraine
969,854,Monterey,99,MALL,Iowa City,US,United States
970,865,Karstens,30206,SUPERMARKET,Tumaco,CO,Colombia
971,409,Erie,5049,AIRPORT,San Luis,CU,Cuba
972,436,Spaight,3,AIRPORT,Nikolayevskaya,RU,Russia
973,756,Ridgeway,4143,MALL,Francisco I Madero,MX,Mexico
974,562,Hooker,763,SUBWAY,Xike,CN,China
975,865,Forster,2205,AIRPORT,Hongtang,CN,China
976,489,Luster,9129,TRAIN,København,DK,Denmark
977,135,Carpenter,1279,TRAIN,Guinticgan,PH,Philippines
978,109,Lindbergh,8053,AIRPORT,Albufeira,PT,Portugal
979,649,Red Cloud,55043,BUS,Karangpaningal,ID,Indonesia
980,132,Kipling,9,AIRPORT,Marne-la-Vallée,FR,France
981,364,Old Gate,3984,SUPERMARKET,Shirokaya Rechka,RU,Russia
982,488,Elka,58901,SUPERMARKET,Mayenne,FR,France
983,250,High Crossing,3,AIRPORT,Gandoang,ID,Indonesia
984,512,Messerschmidt,2,MALL,Oenopu,ID,Indonesia
985,340,Northridge,8,SUBWAY,Austin,US,United States
986,645,Atwood,98416,SUBWAY,Mosjøen,NO,Norway
987,32,Fieldstone,5715,SUBWAY,Mekarsari,ID,Indonesia
988,698,Shasta,8451,TRAIN,Lukashin,AM,Armenia
989,761,Spohn,508,BUS,Kampungruweh,ID,Indonesia
990,288,Forest,085,SUBWAY,Lazo,RU,Russia
991,984,Blackbird,495,TRAIN,Marseille,FR,France
992,487,Susan,1,AIRPORT,Baoshui,CN,China
993,241,Melvin,3700,SUPERMARKET,Catayauan,PH,Philippines
994,910,Dayton,04,ELEVATOR,Oxelösund,SE,Sweden
995,213,Veith,3940,MALL,Cimaung Kidul,ID,Indonesia
996,575,Sycamore,7,SUPERMARKET,Ell,LU,Luxembourg
997,401,Fordem,165,AIRPORT,Primorsko-Akhtarsk,RU,Russia
998,40,Delladonna,25876,MALL,Tamaki,NZ,New Zealand
999,553,Waxwing,8926,AIRPORT,Cacocum,CU,Cuba
1000,932,Forest,38356,SUPERMARKET,Néa Kíos,GR,Greece
